{
  "type": "FeatureCollection",
  "features": [
    {
      "type": "Feature",
      "properties": {
        "norad_id": 35033,
        "name": "COSMOS 2251 DEB",
        "group": "cosmos-2251-debris",
        "lat": -47.27179732366187,
        "lon": 166.19726800754825,
        "alt_km": 719.5308984378344,
        "timestamp": "2025-12-08T15:42:50.191972+00:00",
        "meta_object_name": "COSMOS 2251 DEB",
        "meta_object_id": "1993-036AGW",
        "meta_epoch": "2025-12-07T20:05:05.429760",
        "meta_mean_motion": 14.50894479,
        "meta_eccentricity": 0.0014382,
        "meta_inclination": 74.0255,
        "meta_ra_of_asc_node": 185.802,
        "meta_arg_of_pericenter": 292.4939,
        "meta_mean_anomaly": 67.4698,
        "meta_ephemeris_type": 0,
        "meta_classification_type": "U",
        "meta_norad_cat_id": 35033,
        "meta_element_set_no": 999,
        "meta_rev_at_epoch": 65856,
        "meta_bstar": 0.0010787428,
        "meta_mean_motion_dot": 4.237e-05,
        "meta_mean_motion_ddot": 0,
        "tle_line1": "1 35033U 93036AGW 25341.83686840  .00004237  00000+0  10787-2 0  9993",
        "tle_line2": "2 35033  74.0255 185.8020 0014382 292.4939  67.4698 14.50894479658560"
      },
      "geometry": {
        "type": "Point",
        "coordinates": [
          166.19726800754825,
          -47.27179732366187
        ]
      }
    },
    {
      "type": "Feature",
      "properties": {
        "norad_id": 35038,
        "name": "COSMOS 2251 DEB",
        "group": "cosmos-2251-debris",
        "lat": -61.78635331196223,
        "lon": 17.845033985384468,
        "alt_km": 830.1267849279493,
        "timestamp": "2025-12-08T15:42:50.191982+00:00",
        "meta_object_name": "COSMOS 2251 DEB",
        "meta_object_id": "1993-036AHB",
        "meta_epoch": "2025-12-07T04:47:00.892896",
        "meta_mean_motion": 14.25090791,
        "meta_eccentricity": 0.01137219,
        "meta_inclination": 74.1064,
        "meta_ra_of_asc_node": 52.5358,
        "meta_arg_of_pericenter": 37.9776,
        "meta_mean_anomaly": 353.0868,
        "meta_ephemeris_type": 0,
        "meta_classification_type": "U",
        "meta_norad_cat_id": 35038,
        "meta_element_set_no": 999,
        "meta_rev_at_epoch": 85490,
        "meta_bstar": 0.0014810434,
        "meta_mean_motion_dot": 3.692e-05,
        "meta_mean_motion_ddot": 0,
        "tle_line1": "1 35038U 93036AHB 25341.19931589  .00003692  00000+0  14810-2 0  9995",
        "tle_line2": "2 35038  74.1064  52.5358 0113721  37.9776 353.0868 14.25090791854902"
      },
      "geometry": {
        "type": "Point",
        "coordinates": [
          17.845033985384468,
          -61.78635331196223
        ]
      }
    },
    {
      "type": "Feature",
      "properties": {
        "norad_id": 35043,
        "name": "COSMOS 2251 DEB",
        "group": "cosmos-2251-debris",
        "lat": 73.11469737556509,
        "lon": 162.13899151594404,
        "alt_km": 699.4681075368926,
        "timestamp": "2025-12-08T15:42:50.191992+00:00",
        "meta_object_name": "COSMOS 2251 DEB",
        "meta_object_id": "1993-036AHG",
        "meta_epoch": "2025-12-07T23:01:03.149472",
        "meta_mean_motion": 14.76553805,
        "meta_eccentricity": 0.00972573,
        "meta_inclination": 73.9525,
        "meta_ra_of_asc_node": 54.9959,
        "meta_arg_of_pericenter": 265.11,
        "meta_mean_anomaly": 93.8965,
        "meta_ephemeris_type": 0,
        "meta_classification_type": "U",
        "meta_norad_cat_id": 35043,
        "meta_element_set_no": 999,
        "meta_rev_at_epoch": 67348,
        "meta_bstar": 0.0051005631,
        "meta_mean_motion_dot": 0.00038635,
        "meta_mean_motion_ddot": 0,
        "tle_line1": "1 35043U 93036AHG 25341.95906423  .00038635  00000+0  51006-2 0  9997",
        "tle_line2": "2 35043  73.9525  54.9959 0097257 265.1100  93.8965 14.76553805673486"
      },
      "geometry": {
        "type": "Point",
        "coordinates": [
          162.13899151594404,
          73.11469737556509
        ]
      }
    },
    {
      "type": "Feature",
      "properties": {
        "norad_id": 35045,
        "name": "COSMOS 2251 DEB",
        "group": "cosmos-2251-debris",
        "lat": -33.271602669461856,
        "lon": 48.86395130047743,
        "alt_km": 774.9389734914166,
        "timestamp": "2025-12-08T15:42:50.192003+00:00",
        "meta_object_name": "COSMOS 2251 DEB",
        "meta_object_id": "1993-036AHJ",
        "meta_epoch": "2025-12-06T22:43:41.331360",
        "meta_mean_motion": 14.0036659,
        "meta_eccentricity": 0.0183364,
        "meta_inclination": 73.7196,
        "meta_ra_of_asc_node": 62.9336,
        "meta_arg_of_pericenter": 305.7539,
        "meta_mean_anomaly": 52.6659,
        "meta_ephemeris_type": 0,
        "meta_classification_type": "U",
        "meta_norad_cat_id": 35045,
        "meta_element_set_no": 999,
        "meta_rev_at_epoch": 84562,
        "meta_bstar": 0.0010227315,
        "meta_mean_motion_dot": 1.724e-05,
        "meta_mean_motion_ddot": 0,
        "tle_line1": "1 35045U 93036AHJ 25340.94700615  .00001724  00000+0  10227-2 0  9991",
        "tle_line2": "2 35045  73.7196  62.9336 0183364 305.7539  52.6659 14.00366590845620"
      },
      "geometry": {
        "type": "Point",
        "coordinates": [
          48.86395130047743,
          -33.271602669461856
        ]
      }
    },
    {
      "type": "Feature",
      "properties": {
        "norad_id": 35060,
        "name": "COSMOS 2251 DEB",
        "group": "cosmos-2251-debris",
        "lat": -13.692050655589574,
        "lon": -112.09802404507715,
        "alt_km": 744.8376518197219,
        "timestamp": "2025-12-08T15:42:50.192013+00:00",
        "meta_object_name": "COSMOS 2251 DEB",
        "meta_object_id": "1993-036AHP",
        "meta_epoch": "2025-11-28T02:37:07.839264",
        "meta_mean_motion": 14.41547968,
        "meta_eccentricity": 0.00179641,
        "meta_inclination": 74.0363,
        "meta_ra_of_asc_node": 271.4275,
        "meta_arg_of_pericenter": 359.5881,
        "meta_mean_anomaly": 0.5257,
        "meta_ephemeris_type": 0,
        "meta_classification_type": "U",
        "meta_norad_cat_id": 35060,
        "meta_element_set_no": 999,
        "meta_rev_at_epoch": 87031,
        "meta_bstar": 0.0004076845,
        "meta_mean_motion_dot": 1.301e-05,
        "meta_mean_motion_ddot": 0,
        "tle_line1": "1 35060U 93036AHP 25332.10911851  .00001301  00000+0  40768-3 0  9998",
        "tle_line2": "2 35060  74.0363 271.4275 0017964 359.5881   0.5257 14.41547968870310"
      },
      "geometry": {
        "type": "Point",
        "coordinates": [
          -112.09802404507715,
          -13.692050655589574
        ]
      }
    },
    {
      "type": "Feature",
      "properties": {
        "norad_id": 35061,
        "name": "COSMOS 2251 DEB",
        "group": "cosmos-2251-debris",
        "lat": -24.549133857823563,
        "lon": 141.12031146344074,
        "alt_km": 694.2941067237825,
        "timestamp": "2025-12-08T15:42:50.192023+00:00",
        "meta_object_name": "COSMOS 2251 DEB",
        "meta_object_id": "1993-036AHQ",
        "meta_epoch": "2025-12-07T15:52:57.034272",
        "meta_mean_motion": 14.6775941,
        "meta_eccentricity": 0.00389324,
        "meta_inclination": 74.0462,
        "meta_ra_of_asc_node": 315.5288,
        "meta_arg_of_pericenter": 67.9184,
        "meta_mean_anomaly": 292.6113,
        "meta_ephemeris_type": 0,
        "meta_classification_type": "U",
        "meta_norad_cat_id": 35061,
        "meta_element_set_no": 999,
        "meta_rev_at_epoch": 88500,
        "meta_bstar": 0.0013491541,
        "meta_mean_motion_dot": 7.757e-05,
        "meta_mean_motion_ddot": 0,
        "tle_line1": "1 35061U 93036AHQ 25341.66177123  .00007757  00000+0  13492-2 0  9990",
        "tle_line2": "2 35061  74.0462 315.5288 0038932  67.9184 292.6113 14.67759410885001"
      },
      "geometry": {
        "type": "Point",
        "coordinates": [
          141.12031146344074,
          -24.549133857823563
        ]
      }
    },
    {
      "type": "Feature",
      "properties": {
        "norad_id": 35062,
        "name": "COSMOS 2251 DEB",
        "group": "cosmos-2251-debris",
        "lat": -21.736465455499392,
        "lon": -72.89680959395375,
        "alt_km": 837.0656850194582,
        "timestamp": "2025-12-08T15:42:50.192033+00:00",
        "meta_object_name": "COSMOS 2251 DEB",
        "meta_object_id": "1993-036AHR",
        "meta_epoch": "2025-12-08T08:01:44.515200",
        "meta_mean_motion": 14.2287727,
        "meta_eccentricity": 0.01278726,
        "meta_inclination": 74.0789,
        "meta_ra_of_asc_node": 101.1426,
        "meta_arg_of_pericenter": 102.1505,
        "meta_mean_anomaly": 259.4,
        "meta_ephemeris_type": 0,
        "meta_classification_type": "U",
        "meta_norad_cat_id": 35062,
        "meta_element_set_no": 999,
        "meta_rev_at_epoch": 85436,
        "meta_bstar": 0.0023515819,
        "meta_mean_motion_dot": 5.727e-05,
        "meta_mean_motion_ddot": 0,
        "tle_line1": "1 35062U 93036AHR 25342.33454300  .00005727  00000+0  23516-2 0  9994",
        "tle_line2": "2 35062  74.0789 101.1426 0127872 102.1505 259.4000 14.22877270854365"
      },
      "geometry": {
        "type": "Point",
        "coordinates": [
          -72.89680959395375,
          -21.736465455499392
        ]
      }
    }
  ]
}